STARLINK-32276          
1 60944U 24155W   26068.46501656 -.00000623  00000+0 -89223-5 0  9996
2 60944  53.1601 130.9073 0001264  79.1509 280.9634 15.30180708 86355
TEVEL2-5                
1 63214U 25052E   26068.96660006  .00021339  00000+0  71765-3 0  9991
2 63214  97.4013 325.3677 0004700  95.3936 264.7842 15.30817434 54919
